ONEWEB-0461             
1 51649U 22012AD  25039.87179418  .00000052  00000+0  10054-3 0  9995
2 51649  87.9059 104.1387 0001858  98.9190 261.2152 13.17650048148925
ONEWEB-0463             
1 51650U 22012AE  25040.15697557  .00000074  00000+0  15725-3 0  9993
2 51650  87.9064 104.1391 0001774 101.5399 258.5932 13.17650463150049
ONEWEB-0464             
1 51651U 22012AF  25039.76347956 -.00000107  00000+0 -34133-3 0  9997
2 51651  87.8917 134.6149 0002084 112.5144 247.6204 13.10375327144703
ONEWEB-0468             
1 51652U 22012AG  25039.77012307  .00000242  00000+0  65572-3 0  9997
2 51652  87.8918 134.6057 0001794 107.6410 252.4914 13.10375576144686
ONEWEB-0473             
1 51653U 22012AH  25039.75516613 -.00000606  00000+0 -17712-2 0  9993
2 51653  87.8917 134.6122 0001727 111.6512 248.4799 13.10374571144683
ONEWEB-0474             
1 51654U 22012AJ  25040.20500925 -.00000583  00000+0 -17051-2 0  9995
2 51654  87.8902 134.4980 0001865 114.7933 245.3389 13.10372161146026
ONEWEB-0475             
1 51655U 22012AK  25040.24472351  .00000051  00000+0  99160-4 0  9992
2 51655  87.9063 104.1012 0001891 126.5900 233.5406 13.17650065150067
ONEWEB-0490             
1 54113U 22138A   25040.24961114  .00000098  00000+0  21216-3 0  9990
2 54113  87.9146  42.9410 0001946  93.3205 266.8150 13.19727112112683
